OBJECT_NAME,OBJECT_ID,EPOCH,MEAN_MOTION,ECCENTRICITY,INCLINATION,RA_OF_ASC_NODE,ARG_OF_PERICENTER,MEAN_ANOMALY,EPHEMERIS_TYPE,CLASSIFICATION_TYPE,NORAD_CAT_ID,ELEMENT_SET_NO,REV_AT_EPOCH,BSTAR,MEAN_MOTION_DOT,MEAN_MOTION_DDOT
SXM-10,2025-122A,2026-06-07T16:17:49.636608,1.00270656,.00017537,0.0171,15.4671,357.0715,11.8306,0,U,64290,999,358,0,-.2E-7,0
STARLINK-34448,2025-123A,2026-06-08T12:27:25.698816,14.98331051,.0002234,70.0022,325.4595,261.3918,98.6988,0,U,64291,999,5644,.14184E-3,.16E-4,0
STARLINK-34362,2025-123B,2026-06-08T12:00:02.000160,14.98345604,.0003067,70.0021,325.5774,264.5319,286.3244,0,U,64292,999,570,-.6442E-3,-.7774E-4,0
STARLINK-34428,2025-123C,2026-06-08T11:57:08.243712,14.98338137,.0002523,70.0012,325.3821,272.2548,87.8322,0,U,64293,999,5644,.4289E-3,.5029E-4,0
STARLINK-34388,2025-123D,2026-06-08T11:21:20.530656,14.98339125,.0002829,70.0019,325.6932,269.9384,90.1451,0,U,64294,999,5643,.22099E-3,.2545E-4,0
STARLINK-34424,2025-123E,2026-06-08T11:33:07.623072,14.98336422,.0002964,70.0020,325.7150,266.5992,93.4828,0,U,64295,999,5643,.26065E-3,.3019E-4,0
STARLINK-34443,2025-123F,2026-06-08T12:21:10.664064,14.98334200,.000209,70.0007,325.4401,259.7849,100.3075,0,U,64296,999,5644,.4016E-3,.4702E-4,0
STARLINK-34369,2025-123G,2026-06-08T12:39:26.771616,14.98334345,.0002956,70.0013,325.4796,266.5688,93.5133,0,U,64297,999,5522,.2537E-3,.2936E-4,0
STARLINK-34391,2025-123H,2026-06-08T11:39:06.001632,14.98336369,.0002787,70.0021,325.3356,269.0364,91.0476,0,U,64298,999,5522,.32585E-3,.3798E-4,0
STARLINK-34378,2025-123J,2026-06-08T12:21:24.973632,14.98326798,.000286,70.0008,325.4434,268.8102,91.2729,0,U,64299,999,5522,.46556E-3,.5466E-4,0
STARLINK-34376,2025-123K,2026-06-08T11:21:06.302304,14.98339470,.000307,70.0018,325.6970,262.3697,97.7114,0,U,64300,999,5521,.20233E-3,.2323E-4,0
STARLINK-34372,2025-123L,2026-06-08T12:33:11.781792,14.98341796,.0002421,70.0011,325.4694,266.9853,93.1029,0,U,64301,999,5522,.10633E-3,.1176E-4,0
STARLINK-34379,2025-123M,2026-06-08T12:11:40.464672,15.41049016,.0004127,69.9987,280.1173,273.9108,86.1601,0,U,64302,999,5635,.62529E-3,.25853E-3,0
STARLINK-34356,2025-123N,2026-06-08T11:45:06.541056,14.98340827,.000276,70.0018,325.3511,267.9617,92.1226,0,U,64303,999,5522,.42214E-3,.4949E-4,0
STARLINK-34360,2025-123P,2026-06-08T11:15:19.910016,14.98337344,.0003024,70.0017,325.6767,267.4916,92.5897,0,U,64304,999,5521,.31461E-3,.3664E-4,0
STARLINK-34383,2025-123Q,2026-06-08T11:39:22.554144,14.98332536,.0003148,70.0020,325.7338,267.9615,92.1183,0,U,64305,999,5521,.14752E-3,.1668E-4,0
STARLINK-34355,2025-123R,2026-06-08T11:33:21.930048,14.98334043,.000314,70.0016,325.7208,268.1723,91.9076,0,U,64306,999,5521,.29957E-3,.3484E-4,0
STARLINK-34380,2025-123S,2026-06-08T11:27:22.995072,14.98325456,.0003105,70.0011,325.7076,266.1908,93.8896,0,U,64307,999,5521,.41117E-3,.4816E-4,0
STARLINK-34374,2025-123T,2026-06-08T11:10:01.928640,14.96421521,.0005558,70.0009,325.6629,38.6440,321.5114,0,U,64308,999,5521,-.65478E-1,-.693215E-2,0
STARLINK-34370,2025-123U,2026-06-08T12:33:26.050752,14.98336004,.0002906,70.0012,325.4629,268.3802,91.7025,0,U,64309,999,5522,.30798E-3,.3584E-4,0
STARLINK-34357,2025-123V,2026-06-08T11:27:07.030080,14.98337012,.0003112,70.0019,325.7113,267.6249,92.4554,0,U,64310,999,5521,.27257E-3,.3161E-4,0
STARLINK-34368,2025-123W,2026-06-08T11:15:05.991840,14.98334108,.0001817,70.0021,325.6713,269.2629,90.8322,0,U,64311,999,5521,.25642E-3,.2968E-4,0
STARLINK-34384,2025-123X,2026-06-08T12:39:12.566592,14.98333836,.000251,70.0017,325.4837,271.5700,88.5172,0,U,64312,999,5522,.20715E-3,.238E-4,0
STARLINK-34358,2025-123Y,2026-06-08T12:27:10.926144,14.98316377,.0002367,70.0011,325.4537,262.6027,97.4863,0,U,64313,999,5522,.11576E-3,.1288E-4,0
STARLINK-34354,2025-123Z,2026-06-08T12:15:10.389024,14.98326667,.0003213,70.0006,325.4220,269.7323,90.3468,0,U,64314,999,5522,.14601E-3,.1649E-4,0
STARLINK-34387,2025-123AA,2026-06-08T12:03:07.836192,14.98332988,.0002862,70.0018,325.3940,265.4778,94.6054,0,U,64315,999,5522,.57699E-4,.596E-5,0
STARLINK-33590,2025-123AB,2026-06-08T12:15:23.959008,14.98336921,.000272,70.0009,325.4173,268.1169,91.9678,0,U,64316,999,5522,.26679E-3,.3092E-4,0
STARLINK-11736 [DTC],2025-124A,2026-06-08T04:26:00.767904,15.70936442,.0000836,42.9975,204.0351,359.1940,0.8926,0,U,64317,999,5706,.11999E-2,.157089E-2,0
STARLINK-11673 [DTC],2025-124B,2026-06-08T10:01:39.571104,15.70851024,.0002114,43.0020,202.3300,271.4753,88.5872,0,U,64318,999,5710,.55197E-3,.7102E-3,0
STARLINK-11671 [DTC],2025-124C,2026-06-08T09:46:22.187136,15.70928129,.0002291,43.0009,202.2439,263.2978,96.7629,0,U,64319,999,5710,.12942E-2,.169677E-2,0
