SXM-10                  
1 64290U 25122A   26158.67904672 -.00000002  00000+0  00000+0 0  9997
2 64290   0.0171  15.4671 0001753 357.0715  11.8306  1.00270656  3582
STARLINK-34448          
1 64291U 25123A   26159.51904744  .00001600  00000+0  14184-3 0  9999
2 64291  70.0022 325.4595 0002234 261.3918  98.6988 14.98331051 56441
STARLINK-34362          
1 64292U 25123B   26159.50002315 -.00007774  00000+0 -64420-3 0  9990
2 64292  70.0021 325.5774 0003067 264.5319 286.3244 14.98345604  5709
STARLINK-34428          
1 64293U 25123C   26159.49801208  .00005029  00000+0  42890-3 0  9993
2 64293  70.0012 325.3821 0002523 272.2548  87.8322 14.98338137 56448
STARLINK-34388          
1 64294U 25123D   26159.47315429  .00002545  00000+0  22099-3 0  9996
2 64294  70.0019 325.6932 0002829 269.9384  90.1451 14.98339125 56439
STARLINK-34424          
1 64295U 25123E   26159.48133823  .00003019  00000+0  26065-3 0  9998
2 64295  70.0020 325.7150 0002964 266.5992  93.4828 14.98336422 56434
STARLINK-34443          
1 64296U 25123F   26159.51470676  .00004702  00000+0  40160-3 0  9995
2 64296  70.0007 325.4401 0002090 259.7849 100.3075 14.98334200 56446
STARLINK-34369          
1 64297U 25123G   26159.52739319  .00002936  00000+0  25370-3 0  9992
2 64297  70.0013 325.4796 0002956 266.5688  93.5133 14.98334345 55222
STARLINK-34391          
1 64298U 25123H   26159.48548613  .00003798  00000+0  32585-3 0  9996
2 64298  70.0021 325.3356 0002787 269.0364  91.0476 14.98336369 55225
STARLINK-34378          
1 64299U 25123J   26159.51487238  .00005466  00000+0  46556-3 0  9993
2 64299  70.0008 325.4434 0002860 268.8102  91.2729 14.98326798 55226
STARLINK-34376          
1 64300U 25123K   26159.47298961  .00002323  00000+0  20233-3 0  9997
2 64300  70.0018 325.6970 0003070 262.3697  97.7114 14.98339470 55218
STARLINK-34372          
1 64301U 25123L   26159.52305303  .00001176  00000+0  10633-3 0  9991
2 64301  70.0011 325.4694 0002421 266.9853  93.1029 14.98341796 55226
STARLINK-34379          
1 64302U 25123M   26159.50810723  .00025853  00000+0  62529-3 0  9996
2 64302  69.9987 280.1173 0004127 273.9108  86.1601 15.41049016 56353
STARLINK-34356          
1 64303U 25123N   26159.48965904  .00004949  00000+0  42214-3 0  9998
2 64303  70.0018 325.3511 0002760 267.9617  92.1226 14.98340827 55229
STARLINK-34360          
1 64304U 25123P   26159.46898044  .00003664  00000+0  31461-3 0  9992
2 64304  70.0017 325.6767 0003024 267.4916  92.5897 14.98337344 55213
STARLINK-34383          
1 64305U 25123Q   26159.48567771  .00001668  00000+0  14752-3 0  9991
2 64305  70.0020 325.7338 0003148 267.9615  92.1183 14.98332536 55213
STARLINK-34355          
1 64306U 25123R   26159.48150382  .00003484  00000+0  29957-3 0  9999
2 64306  70.0016 325.7208 0003140 268.1723  91.9076 14.98334043 55213
STARLINK-34380          
1 64307U 25123S   26159.47734948  .00004816  00000+0  41117-3 0  9997
2 64307  70.0011 325.7076 0003105 266.1908  93.8896 14.98325456 55215
STARLINK-34374          
1 64308U 25123T   26159.46530010 -.00693215  00000+0 -65478-1 0  9994
2 64308  70.0009 325.6629 0005558  38.6440 321.5114 14.96421521 55215
STARLINK-34370          
1 64309U 25123U   26159.52321818  .00003584  00000+0  30798-3 0  9997
2 64309  70.0012 325.4629 0002906 268.3802  91.7025 14.98336004 55227
STARLINK-34357          
1 64310U 25123V   26159.47716470  .00003161  00000+0  27257-3 0  9992
2 64310  70.0019 325.7113 0003112 267.6249  92.4554 14.98337012 55218
STARLINK-34368          
1 64311U 25123W   26159.46881935  .00002968  00000+0  25642-3 0  9991
2 64311  70.0021 325.6713 0001817 269.2629  90.8322 14.98334108 55215
STARLINK-34384          
1 64312U 25123X   26159.52722878  .00002380  00000+0  20715-3 0  9993
2 64312  70.0017 325.4837 0002510 271.5700  88.5172 14.98333836 55228
STARLINK-34358          
1 64313U 25123Y   26159.51887646  .00001288  00000+0  11576-3 0  9999
2 64313  70.0011 325.4537 0002367 262.6027  97.4863 14.98316377 55220
STARLINK-34354          
1 64314U 25123Z   26159.51053691  .00001649  00000+0  14601-3 0  9998
2 64314  70.0006 325.4220 0003213 269.7323  90.3468 14.98326667 55228
STARLINK-34387          
1 64315U 25123AA  26159.50217403  .00000596  00000+0  57699-4 0  9996
2 64315  70.0018 325.3940 0002862 265.4778  94.6054 14.98332988 55227
STARLINK-33590          
1 64316U 25123AB  26159.51069397  .00003092  00000+0  26679-3 0  9992
2 64316  70.0009 325.4173 0002720 268.1169  91.9678 14.98336921 55227
STARLINK-11736 [DTC]    
1 64317U 25124A   26159.18473111  .00157089  00000+0  11999-2 0  9994
2 64317  42.9975 204.0351 0000836 359.1940   0.8926 15.70936442 57066
STARLINK-11673 [DTC]    
1 64318U 25124B   26159.41781911  .00071020  00000+0  55197-3 0  9990
2 64318  43.0020 202.3300 0002114 271.4753  88.5872 15.70851024 57104
STARLINK-11671 [DTC]    
1 64319U 25124C   26159.40720124  .00169677  00000+0  12942-2 0  9995
2 64319  43.0009 202.2439 0002291 263.2978  96.7629 15.70928129 57100
